IRIDIUM 7               
1 24793U 97020B   26004.62521684  .00000637  00000+0  21196-3 0  9996
2 24793  86.3953  92.5004 0002174 104.9777 255.1661 14.36129786500806
IRIDIUM 5               
1 24795U 97020D   26004.38953619  .00005163  00000+0  40025-3 0  9999
2 24795  86.3886 350.7767 0105913 133.8923 227.1116 14.96731680515535
IRIDIUM 4               
1 24796U 97020E   26004.62149162  .00000636  00000+0  20805-3 0  9991
2 24796  86.3946  89.2430 0002050  99.4328 260.7101 14.37036234501392
IRIDIUM 914             
1 24836U 97030A   26004.61514395  .00000745  00000+0  22548-3 0  9997
2 24836  86.3933  97.2554 0000523  99.7163 260.4096 14.41096418636138
IRIDIUM 16              
1 24841U 97030F   26004.60041684  .00000837  00000+0  26540-3 0  9996
2 24841  86.4049 120.7110 0004019 110.6151 249.5478 14.38917502495965
IRIDIUM 911             
1 24842U 97030G   26004.38305225  .00001087  00000+0  28756-3 0  9995
2 24842  86.4474 119.3495 0015475 140.8924 219.3402 14.47932948504198
IRIDIUM 17              
1 24870U 97034B   26004.64016266  .00000808  00000+0  26047-3 0  9994
2 24870  86.3989 150.1126 0003529  84.4949 275.6651 14.38052036492536
IRIDIUM 920             
1 24871U 97034C   26004.58214072  .00000845  00000+0  25279-3 0  9990
2 24871  86.3999 128.9066 0013059 131.3623 228.8703 14.41758874495598
